GLOBALSTAR M094         
1 39074U 13005C   24117.82721392 -.00000070  00000+0  18903-3 0  9992
2 39074  51.9988   9.8094 0000974  78.2711 281.8265 12.62264924519792
GLOBALSTAR M096         
1 39075U 13005D   24117.84031712 -.00000094  00000+0  52768-4 0  9999
2 39075  52.0086  57.9563 0000880  60.7487 299.3467 12.62264676518714
GLOBALSTAR M078         
1 39076U 13005E   24117.81450380 -.00000084  00000+0  11193-3 0  9998
2 39076  51.9846 143.1182 0000907 354.7826   5.3030 12.62268510517334
GLOBALSTAR M095         
1 39077U 13005F   24117.44415875 -.00000083  00000+0  11429-3 0  9999
2 39077  51.9777 141.6439 0000742  33.9118 326.1796 12.62265812517147
GLOBALSTAR M087         
1 52888U 22064A   24117.92362299 -.00000062  00000+0  12531-3 0  9995
2 52888  51.9781  27.1327 0008808 232.6496 127.3603 13.37571274 90665
